[Satellite]
VERSION=1.1
NAME=ARIANE 40 R/B
NICKNAME=ARIANE 40 R/B
TLE1=1 21610U 91050F   22342.46568524  .00000321  00000+0  11285-3 0  9993
TLE2=2 21610  98.3633  48.4279 0004218  71.8139 288.3509 14.41162044647898
STATUS=0
